NORAD_CAT_ID,OBJECT_NAME,OBJECT_TYPE,EPOCH,MEAN_MOTION,ECCENTRICITY,INCLINATION,RA_OF_ASC_NODE,ARG_OF_PERICENTER,MEAN_ANOMALY,BSTAR,MEAN_MOTION_DOT,MEAN_MOTION_DDOT,TLE_LINE0,TLE_LINE1,TLE_LINE2,SEMIMAJOR_AXIS,PERIOD,APOGEE,PERIGEE,DECAYED
50838.0,STARLINK-3322,PAYLOAD,2022-11-20 00:53:00,15.08846458,0.0001949,53.2157,191.5147,44.2485,315.8663,0.0001811,2.596e-05,0.0,0 STARLINK-3322,1 50838U 22001AM  22324.03680775  .00002596  00000-0  18110-3 0  9994,2 50838  53.2157 191.5147 0001949  44.2485 315.8663 15.08846458 49450,6917.861,95.437,541.0740000000002,538.377,0.0
50838.0,STARLINK-3322,PAYLOAD,2022-11-20 21:33:00,15.08845035,0.0002021,53.2152,187.6491,44.6948,315.4207,6.8825e-05,8.07e-06,0.0,0 STARLINK-3322,1 50838U 22001AM  22324.89792712  .00000807  00000-0  68825-4 0  9995,2 50838  53.2152 187.6491 0002021  44.6948 315.4207 15.08845035 48384,6917.865,95.437,541.128,538.332,0.0
50838.0,STARLINK-3322,PAYLOAD,2022-11-21 21:23:48,15.08840109,0.0002083,53.2146,183.189,42.9902,317.1252,-7.2452e-05,-1.441e-05,0.0,0 STARLINK-3322,1 50838U 22001AM  22325.89153080 -.00001441  00000-0 -72452-4 0  9993,2 50838  53.2146 183.1890 0002083  42.9902 317.1252 15.08840109 48533,6917.88,95.438,541.186,538.304,0.0
50838.0,STARLINK-3322,PAYLOAD,2022-11-22 00:34:34,15.08833499,0.0002014,53.2151,182.5943,41.96100000000001,318.1537,-2.9775e-05,-7.62e-06,0.0,0 STARLINK-3322,1 50838U 22001AM  22326.02401424 -.00000762  00000-0 -29775-4 0  9992,2 50838  53.2151 182.5943 0002014  41.9610 318.1537 15.08833499 49756,6917.9,95.438,541.159,538.372,0.0
50838.0,STARLINK-3322,PAYLOAD,2022-11-22 10:06:53,15.08834275,0.0001996,53.2157,180.8104,40.0138,320.1001,7.9822e-06,-1.61e-06,0.0,0 STARLINK-3322,1 50838U 22001AM  22326.42145653 -.00000161  00000-0  79822-5 0  9996,2 50838  53.2157 180.8104 0001996  40.0138 320.1001 15.08834275 48611,6917.898,95.438,541.144,538.382,0.0
50838.0,STARLINK-3322,PAYLOAD,2022-11-22 19:39:12,15.08833746,0.0002014,53.2156,179.0261,40.3856,319.7285,6.1123e-05,6.85e-06,0.0,0 STARLINK-3322,1 50838U 22001AM  22326.81889585  .00000685  00000-0  61123-4 0  9992,2 50838  53.2156 179.0261 0002014  40.3856 319.7285 15.08833746 48672,6917.9,95.438,541.158,538.371,0.0
50838.0,STARLINK-3322,PAYLOAD,2022-11-23 13:08:27,15.088355800000002,0.0002028,53.2155,175.755,40.8425,319.2719,0.00013919,1.927e-05,0.0,0 STARLINK-3322,1 50838U 22001AM  22327.54753483  .00001927  00000-0  13919-3 0  9999,2 50838  53.2155 175.7550 0002028  40.8425 319.2719 15.08835580 49987,6917.894,95.438,541.1619999999998,538.356,0.0
50838.0,STARLINK-3322,PAYLOAD,2022-11-23 21:05:22,15.08837814,0.0002039,53.2156,174.2681,41.8181,318.2967,0.00015671,2.207e-05,0.0,0 STARLINK-3322,1 50838U 22001AM  22327.87873453  .00002207  00000-0  15671-3 0  9994,2 50838  53.2156 174.2681 0002039  41.8181 318.2967 15.08837814 48838,6917.887,95.438,541.163,538.342,0.0
50838.0,STARLINK-3322,PAYLOAD,2022-11-24 06:37:41,15.0883539,0.0002064,53.2156,172.4842,41.6997,318.4153,0.0001207,1.633e-05,0.0,0 STARLINK-3322,1 50838U 22001AM  22328.27617955  .00001633  00000-0  12070-3 0  9994,2 50838  53.2156 172.4842 0002064  41.6997 318.4153 15.08835390 48890,6917.894,95.438,541.187,538.332,0.0
50838.0,STARLINK-3322,PAYLOAD,2022-11-24 17:45:24,15.08829899,0.0002048,53.2156,170.4026,44.2171,315.8985,3.0594e-05,1.99e-06,0.0,0 STARLINK-3322,1 50838U 22001AM  22328.73986660  .00000199  00000-0  30594-4 0  9995,2 50838  53.2156 170.4026 0002048  44.2171 315.8985 15.08829899 50161,6917.911,95.438,541.193,538.359,0.0
50838.0,STARLINK-3322,PAYLOAD,2022-11-25 12:50:01,15.08837373,0.0002098,53.2156,166.8341,45.2211,314.8951,3.4646e-05,2.63e-06,0.0,0 STARLINK-3322,1 50838U 22001AM  22329.53474524  .00000263  00000-0  34646-4 0  9999,2 50838  53.2156 166.8341 0002098  45.2211 314.8951 15.08837373 49088,6917.888000000001,95.438,541.205,538.302,0.0
50838.0,STARLINK-3322,PAYLOAD,2022-11-25 17:36:11,15.08837875,0.0002116,53.2155,165.9418,45.1617,314.9547,3.366e-05,2.47e-06,0.0,0 STARLINK-3322,1 50838U 22001AM  22329.73346519  .00000247  00000-0  33660-4 0  9990,2 50838  53.2155 165.9418 0002116  45.1617 314.9547 15.08837875 50319,6917.887,95.438,541.216,538.288,0.0
50838.0,STARLINK-3322,PAYLOAD,2022-11-25 19:11:34,15.08837697,0.0002112,53.2155,165.6445,45.0761,315.0402,3.0671e-05,2e-06,0.0,0 STARLINK-3322,1 50838U 22001AM  22329.79970557  .00000200  00000-0  30671-4 0  9999,2 50838  53.2155 165.6445 0002112  45.0761 315.0402 15.08837697 49122,6917.887,95.438,541.2130000000002,538.2909999999998,0.0
50838.0,STARLINK-3322,PAYLOAD,2022-11-26 12:40:49,15.08837368,0.0002101,53.2153,162.3735,44.749,315.3671,0.00011072,1.474e-05,0.0,0 STARLINK-3322,1 50838U 22001AM  22330.52834508  .00001474  00000-0  11072-3 0  9994,2 50838  53.2153 162.3735 0002101  44.7490 315.3671 15.08837368 49237,6917.888000000001,95.438,541.207,538.3,0.0
50838.0,STARLINK-3322,PAYLOAD,2022-11-26 17:26:58,15.08837308,0.0002115,53.2152,161.4811,44.6602,315.456,0.0001392,1.928e-05,0.0,0 STARLINK-3322,1 50838U 22001AM  22330.72706537  .00001928  00000-0  13920-3 0  9994,2 50838  53.2152 161.4811 0002115  44.6602 315.4560 15.08837308 49265,6917.889,95.438,541.217,538.29,0.0
50838.0,STARLINK-3322,PAYLOAD,2022-11-26 20:37:44,15.08839467,0.0002106,53.2153,160.8864,45.0089,315.1074,0.00014323,1.992e-05,0.0,0 STARLINK-3322,1 50838U 22001AM  22330.85954464  .00001992  00000-0  14323-3 0  9991,2 50838  53.2153 160.8864 0002106  45.0089 315.1074 15.08839467 50482,6917.882,95.438,541.2040000000002,538.29,0.0
50838.0,STARLINK-3322,PAYLOAD,2022-11-27 07:45:26,15.08842862,0.0002147,53.2153,158.8047,45.5519,314.5648,0.00014532,2.025e-05,0.0,0 STARLINK-3322,1 50838U 22001AM  22331.32322337  .00002025  00000-0  14532-3 0  9992,2 50838  53.2153 158.8047 0002147  45.5519 314.5648 15.08842862 49357,6917.871999999999,95.437,541.222,538.251,0.0
50838.0,STARLINK-3322,PAYLOAD,2022-11-27 18:53:08,15.08845628,0.0002217,53.2143,156.7231,45.9683,314.1491,0.00017579,2.511e-05,0.0,0 STARLINK-3322,1 50838U 22001AM  22331.78690256  .00002511  00000-0  17579-3 0  9994,2 50838  53.2143 156.7231 0002217  45.9683 314.1491 15.08845628 49425,6917.863,95.437,541.262,538.194,0.0
50838.0,STARLINK-3322,PAYLOAD,2022-11-28 06:00:49,15.08851496,0.000225,53.2144,154.6416,46.364,313.7539,0.00021181,3.085e-05,0.0,0 STARLINK-3322,1 50838U 22001AM  22332.25057837  .00003085  00000-0  21181-3 0  9990,2 50838  53.2144 154.6416 0002250  46.3640 313.7539 15.08851496 50692,6917.845,95.437,541.2669999999998,538.154,0.0
50838.0,STARLINK-3322,PAYLOAD,2022-11-28 12:22:22,15.08843397,0.0002211,53.2144,153.452,47.7041,312.4139,5.5515e-05,5.95e-06,0.0,0 STARLINK-3322,1 50838U 22001AM  22332.51554138  .00000595  00000-0  55515-4 0  9997,2 50838  53.2144 153.4520 0002211  47.7041 312.4139 15.08843397 50730,6917.87,95.437,541.265,538.205,0.0
50838.0,STARLINK-3322,PAYLOAD,2022-11-29 12:13:10,15.08823455,0.0002254,53.2157,148.9911,54.6385,305.4817,0.00025339,3.745e-05,0.0,0 STARLINK-3322,1 50838U 22001AM  22333.50914909  .00003745  00000-0  25339-3 0  9993,2 50838  53.2157 148.9911 0002254  54.6385 305.4817 15.08823455 50886,6917.931,95.439,541.355,538.237,0.0
50838.0,STARLINK-3322,PAYLOAD,2022-11-29 18:34:42,15.08835947,0.0002261,53.2156,147.8018,52.5272,307.5925,0.00010468,1.378e-05,0.0,0 STARLINK-3322,1 50838U 22001AM  22333.77410514  .00001378  00000-0  10468-3 0  9992,2 50838  53.2156 147.8018 0002261  52.5272 307.5925 15.08835947 50928,6917.893,95.438,541.322,538.194,0.0
50838.0,STARLINK-3322,PAYLOAD,2022-11-30 18:25:29,15.08839779,0.0002221,53.2156,143.3409,48.1477,311.9704,0.00011424,1.53e-05,0.0,0 STARLINK-3322,1 50838U 22001AM  22334.76770091  .00001530  00000-0  11424-3 0  9994,2 50838  53.2156 143.3409 0002221  48.1477 311.9704 15.08839779 49870,6917.880999999999,95.438,541.283,538.21,0.0
50838.0,STARLINK-3322,PAYLOAD,2022-12-01 03:57:47,15.08843216,0.000226,53.2159,141.5568,49.6268,310.4921,0.00014691,2.051e-05,0.0,0 STARLINK-3322,1 50838U 22001AM  22335.16513867  .00002051  00000-0  14691-3 0  9993,2 50838  53.2159 141.5568 0002260  49.6268 310.4921 15.08843216 51134,6917.871,95.437,541.299,538.172,0.0
50838.0,STARLINK-3322,PAYLOAD,2022-12-01 11:54:43,15.08848526,0.0002385,53.2167,140.0708,55.4687,304.653,-1.1394e-05,-4.7e-06,0.0,0 STARLINK-3322,1 50838U 22001AM  22335.49634042 -.00000470  00000-0 -11394-4 0  9991,2 50838  53.2167 140.0708 0002385  55.4687 304.6530 15.08848526 49981,6917.854,95.437,541.369,538.069,0.0
50838.0,STARLINK-3322,PAYLOAD,2022-12-01 18:16:16,15.08835131,0.0002361,53.2169,138.8805,52.3718,307.7488,2.5579e-05,1.19e-06,0.0,0 STARLINK-3322,1 50838U 22001AM  22335.76130771  .00000119  00000-0  25579-4 0  9999,2 50838  53.2169 138.8805 0002361  52.3718 307.7488 15.08835131 51225,6917.895,95.438,541.394,538.127,0.0
50838.0,STARLINK-3322,PAYLOAD,2022-12-02 11:45:31,15.08842826,0.0002273,53.2166,135.6095,51.4385,308.6811,1.3431e-05,-7.5e-07,0.0,0 STARLINK-3322,1 50838U 22001AM  22336.48994400 -.00000075  00000-0  13431-4 0  9992,2 50838  53.2166 135.6095 0002273  51.4385 308.6811 15.08842826 50138,6917.871999999999,95.437,541.309,538.164,0.0
50838.0,STARLINK-3322,PAYLOAD,2022-12-02 19:42:26,15.08844329,0.0002285,53.2164,134.1226,50.7075,309.4120000000001,2.1915e-05,6e-07,0.0,0 STARLINK-3322,1 50838U 22001AM  22336.82114205  .00000060  00000-0  21915-4 0  9996,2 50838  53.2164 134.1226 0002285  50.7075 309.4120 15.08844329 51387,6917.8669999999975,95.437,541.313,538.151,0.0
50838.0,STARLINK-3322,PAYLOAD,2022-12-03 11:36:18,15.088334699999995,0.0002284,53.2171,131.1489,51.0643,309.0553,3.7809e-05,3.13e-06,0.0,0 STARLINK-3322,1 50838U 22001AM  22337.48354766  .00000313  00000-0  37809-4 0  9997,2 50838  53.2171 131.1489 0002284  51.0643 309.0553 15.08833470 51489,6917.9,95.438,541.345,538.185,0.0
